*******************************************************************************
Ephemeris / WWW_USER Mon Jul 15 19:15:09 2024 Pasadena, USA      / Horizons    
*******************************************************************************
Target body name: (2018 WV1)                      {source: JPL#17}
Center body name: Earth (399)                     {source: DE441}
Center-site name: Gemini South Obs., Cerro Pachon
*******************************************************************************
Start time      : A.D. 2018-Dec-25 23:55:00.0000 UT      
Stop  time      : A.D. 2018-Dec-26 09:31:00.0000 UT      
Step-size       : 1 minutes
*******************************************************************************
Target pole/equ : undefined
Target radii    : undefined                                                    
Center geodetic : 289.2634, -30.2406227, 2.71233  {E-lon(deg),Lat(deg),Alt(km)}
Center cylindric: 289.2634,5517.21435,-3194.81213 {E-lon(deg),Dxy(km),Dz(km)}
Center pole/equ : ITRF93                          {East-longitude positive}
Center radii    : 6378.137, 6378.137, 6356.752 km {Equator_a, b, pole_c}       
Target primary  : Sun
Vis. interferer : MOON (R_eq= 1737.400) km        {source: DE441}
Rel. light bend : Sun                             {source: DE441}
Rel. lght bnd GM: 1.3271E+11 km^3/s^2                                          
Small-body perts: Yes                             {source: SB441-N16}
Atmos refraction: NO (AIRLESS)
RA format       : HMS
Time format     : CAL 
Calendar mode   : Mixed Julian/Gregorian
RTS-only print  : NO       
EOP file        : eop.240715.p241008                                           
EOP coverage    : DATA-BASED 1962-JAN-20 TO 2024-JUL-15. PREDICTS-> 2024-OCT-07
Units conversion: 1 au= 149597870.700 km, c= 299792.458 km/s, 1 day= 86400.0 s 
Table cut-offs 1: Elevation (-90.0deg=NO ),Airmass (>38.000=NO), Daylight (YES)
Table cut-offs 2: Solar elongation (  0.0,180.0=NO ),Local Hour Angle( 0.0=NO )
Table cut-offs 3: RA/DEC angular rate (     0.0=NO )                           
*******************************************************************************
Initial IAU76/J2000 heliocentric ecliptic osculating elements (au, days, deg.):
  EPOCH=  2458458.5 ! 2018-Dec-06.00 (TDB)         Residual RMS= .12928        
   EC= .06869100257422787  QR= .9715505345748198   TP= 2458416.866413563       
   OM= 248.5061090469913   W=  141.3742304527303   IN= 1.905403987972275       
  Equivalent ICRF heliocentric cartesian coordinates (au, au/d):
   X= 2.787163119783287E-01  Y= 8.719775267121872E-01  Z= 3.748421051204766E-01
  VX=-1.676682657337402E-02 VY= 5.516972965834891E-03 VZ= 1.749720915605096E-03
Asteroid physical parameters (km, seconds, rotational period in hours):        
   GM= n.a.                RAD= n.a.               ROTPER= n.a.                
   H= 30.3                 G= .150                 B-V= n.a.                   
                           ALBEDO= n.a.            STYP= n.a.                  
*******************************************************************************
 Date__(UT)__HR:MN     R.A._________(ICRF)_________DEC
******************************************************
$$SOE
 2018-Dec-26 04:01  m  05 58 31.347533 -06 40 31.59176
 2018-Dec-26 04:02  m  05 58 31.254151 -06 40 31.09283
 2018-Dec-26 04:03  m  05 58 31.160738 -06 40 30.59325
 2018-Dec-26 04:04  m  05 58 31.067297 -06 40 30.09303
 2018-Dec-26 04:05  m  05 58 30.973829 -06 40 29.59215
 2018-Dec-26 04:06  m  05 58 30.880335 -06 40 29.09063
 2018-Dec-26 04:07  m  05 58 30.786818 -06 40 28.58846
 2018-Dec-26 04:08  m  05 58 30.693278 -06 40 28.08563
 2018-Dec-26 04:09  m  05 58 30.599718 -06 40 27.58216
 2018-Dec-26 04:10  m  05 58 30.506139 -06 40 27.07804
 2018-Dec-26 04:11  m  05 58 30.412543 -06 40 26.57327
 2018-Dec-26 04:12  m  05 58 30.318931 -06 40 26.06785
 2018-Dec-26 04:13  m  05 58 30.225305 -06 40 25.56178
 2018-Dec-26 04:14  m  05 58 30.131667 -06 40 25.05506
 2018-Dec-26 04:15  m  05 58 30.038019 -06 40 24.54769
 2018-Dec-26 04:16  m  05 58 29.944361 -06 40 24.03967
 2018-Dec-26 04:17  m  05 58 29.850695 -06 40 23.53100
 2018-Dec-26 04:18  m  05 58 29.757024 -06 40 23.02168
 2018-Dec-26 04:19  m  05 58 29.663349 -06 40 22.51171
 2018-Dec-26 04:20  m  05 58 29.569671 -06 40 22.00109
 2018-Dec-26 04:21  m  05 58 29.475992 -06 40 21.48982
 2018-Dec-26 04:22  m  05 58 29.382314 -06 40 20.97790
 2018-Dec-26 04:23  m  05 58 29.288638 -06 40 20.46532
 2018-Dec-26 04:24  t  05 58 29.194966 -06 40 19.95210
 2018-Dec-26 04:25  m  05 58 29.101300 -06 40 19.43823
 2018-Dec-26 04:26  m  05 58 29.007641 -06 40 18.92371
 2018-Dec-26 04:27  m  05 58 28.913991 -06 40 18.40854
 2018-Dec-26 04:28  m  05 58 28.820351 -06 40 17.89271
 2018-Dec-26 04:29  m  05 58 28.726724 -06 40 17.37624
 2018-Dec-26 04:30  m  05 58 28.633110 -06 40 16.85912
 2018-Dec-26 04:31  m  05 58 28.539511 -06 40 16.34135
 2018-Dec-26 04:32  m  05 58 28.445930 -06 40 15.82293
 2018-Dec-26 04:33  m  05 58 28.352367 -06 40 15.30386
 2018-Dec-26 04:34  m  05 58 28.258824 -06 40 14.78414
 2018-Dec-26 04:35  m  05 58 28.165304 -06 40 14.26377
 2018-Dec-26 04:36  m  05 58 28.071807 -06 40 13.74275
 2018-Dec-26 04:37  m  05 58 27.978335 -06 40 13.22109
 2018-Dec-26 04:38  m  05 58 27.884889 -06 40 12.69877
 2018-Dec-26 04:39  m  05 58 27.791473 -06 40 12.17581
 2018-Dec-26 04:40  m  05 58 27.698086 -06 40 11.65220
 2018-Dec-26 04:41  m  05 58 27.604731 -06 40 11.12794
 2018-Dec-26 04:42  m  05 58 27.511409 -06 40 10.60304
 2018-Dec-26 04:43  m  05 58 27.418122 -06 40 10.07749
 2018-Dec-26 04:44  m  05 58 27.324871 -06 40 09.55129
 2018-Dec-26 04:45  m  05 58 27.231659 -06 40 09.02444
 2018-Dec-26 04:46  m  05 58 27.138486 -06 40 08.49695
 2018-Dec-26 04:47  m  05 58 27.045355 -06 40 07.96881
 2018-Dec-26 04:48  m  05 58 26.952267 -06 40 07.44003
 2018-Dec-26 04:49  m  05 58 26.859223 -06 40 06.91060
 2018-Dec-26 04:50  m  05 58 26.766226 -06 40 06.38053
 2018-Dec-26 04:51  m  05 58 26.673276 -06 40 05.84981
 2018-Dec-26 04:52  m  05 58 26.580376 -06 40 05.31844
 2018-Dec-26 04:53  m  05 58 26.487527 -06 40 04.78644
 2018-Dec-26 04:54  m  05 58 26.394730 -06 40 04.25379
 2018-Dec-26 04:55  m  05 58 26.301988 -06 40 03.72050
 2018-Dec-26 04:56  m  05 58 26.209302 -06 40 03.18656
 2018-Dec-26 04:57  m  05 58 26.116673 -06 40 02.65198
 2018-Dec-26 04:58  m  05 58 26.024104 -06 40 02.11677
 2018-Dec-26 04:59  m  05 58 25.931595 -06 40 01.58091
 2018-Dec-26 05:00  m  05 58 25.839148 -06 40 01.04441
 2018-Dec-26 05:01  m  05 58 25.746766 -06 40 00.50726
 2018-Dec-26 05:02  m  05 58 25.654448 -06 39 59.96948
 2018-Dec-26 05:03  m  05 58 25.562199 -06 39 59.43107
 2018-Dec-26 05:04  m  05 58 25.470017 -06 39 58.89201
 2018-Dec-26 05:05  m  05 58 25.377906 -06 39 58.35231
 2018-Dec-26 05:06  m  05 58 25.285868 -06 39 57.81198
 2018-Dec-26 05:07  m  05 58 25.193902 -06 39 57.27101
 2018-Dec-26 05:08  m  05 58 25.102012 -06 39 56.72940
 2018-Dec-26 05:09  m  05 58 25.010198 -06 39 56.18716
 2018-Dec-26 05:10  m  05 58 24.918463 -06 39 55.64428
 2018-Dec-26 05:11  m  05 58 24.826808 -06 39 55.10077
 2018-Dec-26 05:12  m  05 58 24.735234 -06 39 54.55662
 2018-Dec-26 05:13  m  05 58 24.643743 -06 39 54.01184
 2018-Dec-26 05:14  m  05 58 24.552337 -06 39 53.46643
 2018-Dec-26 05:15  m  05 58 24.461017 -06 39 52.92038
 2018-Dec-26 05:16  m  05 58 24.369785 -06 39 52.37371
 2018-Dec-26 05:17  m  05 58 24.278642 -06 39 51.82640
 2018-Dec-26 05:18  m  05 58 24.187590 -06 39 51.27847
 2018-Dec-26 05:19  m  05 58 24.096631 -06 39 50.72990
 2018-Dec-26 05:20  m  05 58 24.005766 -06 39 50.18071
 2018-Dec-26 05:21  m  05 58 23.914997 -06 39 49.63089
 2018-Dec-26 05:22  m  05 58 23.824325 -06 39 49.08044
 2018-Dec-26 05:23  m  05 58 23.733751 -06 39 48.52936
 2018-Dec-26 05:24  m  05 58 23.643278 -06 39 47.97766
 2018-Dec-26 05:25  m  05 58 23.552907 -06 39 47.42534
 2018-Dec-26 05:26  m  05 58 23.462640 -06 39 46.87239
 2018-Dec-26 05:27  m  05 58 23.372478 -06 39 46.31882
 2018-Dec-26 05:28  m  05 58 23.282422 -06 39 45.76462
 2018-Dec-26 05:29  m  05 58 23.192474 -06 39 45.20981
 2018-Dec-26 05:30  m  05 58 23.102637 -06 39 44.65437
 2018-Dec-26 05:31  m  05 58 23.012910 -06 39 44.09832
 2018-Dec-26 05:32  m  05 58 22.923297 -06 39 43.54164
 2018-Dec-26 05:33  m  05 58 22.833797 -06 39 42.98435
 2018-Dec-26 05:34  m  05 58 22.744414 -06 39 42.42644
 2018-Dec-26 05:35  m  05 58 22.655148 -06 39 41.86791
 2018-Dec-26 05:36  m  05 58 22.566002 -06 39 41.30877
 2018-Dec-26 05:37  m  05 58 22.476975 -06 39 40.74902
 2018-Dec-26 05:38  m  05 58 22.388071 -06 39 40.18865
 2018-Dec-26 05:39  m  05 58 22.299291 -06 39 39.62767
 2018-Dec-26 05:40  m  05 58 22.210635 -06 39 39.06607
 2018-Dec-26 05:41  m  05 58 22.122107 -06 39 38.50387
 2018-Dec-26 05:42  m  05 58 22.033706 -06 39 37.94106
 2018-Dec-26 05:43  m  05 58 21.945435 -06 39 37.37763
 2018-Dec-26 05:44  m  05 58 21.857296 -06 39 36.81360
 2018-Dec-26 05:45  m  05 58 21.769289 -06 39 36.24897
 2018-Dec-26 05:46  m  05 58 21.681417 -06 39 35.68373
 2018-Dec-26 05:47  m  05 58 21.593680 -06 39 35.11788
 2018-Dec-26 05:48  m  05 58 21.506081 -06 39 34.55143
 2018-Dec-26 05:49  m  05 58 21.418620 -06 39 33.98438
 2018-Dec-26 05:50  m  05 58 21.331300 -06 39 33.41673
 2018-Dec-26 05:51  m  05 58 21.244121 -06 39 32.84847
 2018-Dec-26 05:52  m  05 58 21.157086 -06 39 32.27962
 2018-Dec-26 05:53  m  05 58 21.070196 -06 39 31.71017
 2018-Dec-26 05:54  m  05 58 20.983451 -06 39 31.14012
 2018-Dec-26 05:55  m  05 58 20.896855 -06 39 30.56948
 2018-Dec-26 05:56  m  05 58 20.810408 -06 39 29.99824
 2018-Dec-26 05:57  m  05 58 20.724112 -06 39 29.42641
 2018-Dec-26 05:58  m  05 58 20.637968 -06 39 28.85399
 2018-Dec-26 05:59  m  05 58 20.551977 -06 39 28.28097
 2018-Dec-26 06:00  m  05 58 20.466142 -06 39 27.70737
 2018-Dec-26 06:01  m  05 58 20.380463 -06 39 27.13318
 2018-Dec-26 06:02  m  05 58 20.294943 -06 39 26.55840
 2018-Dec-26 06:03  m  05 58 20.209582 -06 39 25.98303
